{
    "links": {
        "self": "http://www.neowsapp.com/rest/v1/neo/3299023?api_key=iIulBulltgU6a56xZRHN4H3l9WmuAYTsLGpBGhQ2"
    },
    "id": "3299023",
    "neo_reference_id": "3299023",
    "name": "(2005 VT2)",
    "designation": "2005 VT2",
    "nasa_jpl_url": "http://ssd.jpl.nasa.gov/sbdb.cgi?sstr=3299023",
    "absolute_magnitude_h": 22.6,
    "estimated_diameter": {
        "kilometers": {
            "estimated_diameter_min": 0.0802703167,
            "estimated_diameter_max": 0.1794898848
        },
        "meters": {
            "estimated_diameter_min": 80.2703167283,
            "estimated_diameter_max": 179.4898847799
        },
        "miles": {
            "estimated_diameter_min": 0.049877647,
            "estimated_diameter_max": 0.1115298092
        },
        "feet": {
            "estimated_diameter_min": 263.3540659348,
            "estimated_diameter_max": 588.8775935812
        }
    },
    "is_potentially_hazardous_asteroid": false,
    "close_approach_data": [
        {
            "close_approach_date": "1998-07-23",
            "close_approach_date_full": "1998-Jul-23 22:48",
            "epoch_date_close_approach": 901234080000,
            "relative_velocity": {
                "kilometers_per_second": "18.9206689988",
                "kilometers_per_hour": "68114.4083958499",
                "miles_per_hour": "42323.6444835213"
            },
            "miss_distance": {
                "astronomical": "0.3917603618",
                "lunar": "152.3947807402",
                "kilometers": "58606515.675709366",
                "miles": "36416400.1899706108"
            },
            "orbiting_body": "Earth"
        },
        {
            "close_approach_date": "2005-10-20",
            "close_approach_date_full": "2005-Oct-20 10:55",
            "epoch_date_close_approach": 1129805700000,
            "relative_velocity": {
                "kilometers_per_second": "11.5120889708",
                "kilometers_per_hour": "41443.5202950067",
                "miles_per_hour": "25751.3918188613"
            },
            "miss_distance": {
                "astronomical": "0.1128152157",
                "lunar": "43.8851189073",
                "kilometers": "16876915.972310559",
                "miles": "10486829.3044573542"
            },
            "orbiting_body": "Earth"
        }
    ],
    "orbital_data": {
        "orbit_id": "14",
        "orbit_determination_date": "2017-04-06 09:09:56",
        "first_observation_date": "2005-11-04",
        "last_observation_date": "2005-11-29",
        "data_arc_in_days": 25,
        "observations_used": 38,
        "orbit_uncertainty": "7",
        "minimum_orbit_intersection": ".0314751",
        "jupiter_tisserand_invariant": "3.334",
        "epoch_osculation": "2459000.5",
        "eccentricity": ".5644939600846998",
        "semi_major_axis": "2.326084889032079",
        "inclination": "6.146888036656702",
        "ascending_node_longitude": "200.3972742604891",
        "orbital_period": "1295.796393459819",
        "perihelion_distance": "1.013024018529181",
        "perihelion_argument": "155.0624157014286",
        "aphelion_distance": "3.639145759534978",
        "perihelion_time": "2458821.311700596846",
        "mean_anomaly": "49.78234860871735",
        "mean_motion": ".2778214245825983",
        "equinox": "J2000",
        "orbit_class": {
            "orbit_class_type": "APO",
            "orbit_class_description": "Near-Earth asteroid orbits which cross the Earth’s orbit similar to that of 1862 Apollo",
            "orbit_class_range": "a (semi-major axis) > 1.0 AU; q (perihelion) < 1.017 AU"
        }
    },
    "is_sentry_object": false
}